H1 CPF 01  gfz 2022 02 22 13  5532 terrasarx 
H2 0702601  6201 31698    2022 02 22 12 59 42 2022 02 27 00 00 42   120 1 1  0 0 0
H9
10 0 59635  69102.000000  0     305614.279  -1029077.827   6793519.045
10 0 59635  69222.000000  0    -571572.634   -751001.457   6812682.796
10 0 59635  69342.000000  0   -1433672.359   -444602.606   6712146.486
10 0 59635  69462.000000  0   -2265197.497   -115625.743   6493663.294
10 0 59635  69582.000000  0   -3051292.101    229524.347   6161046.318
10 0 59635  69702.000000  0   -3777997.940    583905.811   5720107.227
10 0 59635  69822.000000  0   -4432506.181    940177.035   5178560.922
10 0 59635  69942.000000  0   -5003389.101   1290746.254   4545896.578
10 0 59635  70062.000000  0   -5480807.746   1627930.976   3833216.268
10 0 59635  70182.000000  0   -5856689.789   1944123.238   3053042.842
10 0 59635  70302.000000  0   -6124874.663   2231957.421   2219101.038
10 0 59635  70422.000000  0   -6281223.009   2484476.792   1346074.400
10 0 59635  70542.000000  0   -6323686.672   2695294.998    449341.048
10 0 59635  70662.000000  0   -6252335.523   2858747.366   -455305.255
10 0 59635  70782.000000  0   -6069341.877   2970028.377  -1351942.130
10 0 59635  70902.000000  0   -5778922.331   3025311.847  -2224807.597
10 0 59635  71022.000000  0   -5387238.322   3021851.192  -3058585.710
10 0 59635  71142.000000  0   -4902257.925   2958055.990  -3838680.253
10 0 59635  71262.000000  0   -4333584.345   2833544.491  -4551471.398
10 0 59635  71382.000000  0   -3692255.801   2649170.695  -5184550.296
10 0 59635  71502.000000  0   -2990522.505   2407026.109  -5726927.397
10 0 59635  71622.000000  0   -2241607.728   2110417.611  -6169213.376
10 0 59635  71742.000000  0   -1459454.839   1763820.977  -6503771.680
10 0 59635  71862.000000  0    -658467.370   1372811.313  -6724837.763
10 0 59635  71982.000000  0     146752.452    943972.715  -6828608.099
10 0 59635  72102.000000  0     941663.160    484788.862  -6813298.227
10 0 59635  72222.000000  0    1712041.005      3515.159  -6679172.171
10 0 59635  72342.000000  0    2444229.177   -490966.481  -6428537.200
10 0 59635  72462.000000  0    3125374.787   -989306.960  -6065708.865
10 0 59635  72582.000000  0    3743652.236  -1481861.903  -5596943.778
10 0 59635  72702.000000  0    4288468.677  -1958873.584  -5030343.000
10 0 59635  72822.000000  0    4750650.189  -2410662.251  -4375723.498
10 0 59635  72942.000000  0    5122602.588  -2827821.120  -3644458.418
10 0 59635  73062.000000  0    5398444.879  -3201411.487  -2849288.644
10 0 59635  73182.000000  0    5574112.278  -3523153.976  -2004106.323
10 0 59635  73302.000000  0    5647424.251  -3785611.062  -1123713.934
10 0 59635  73422.000000  0    5618116.327  -3982357.098   -223563.597
10 0 59635  73542.000000  0    5487833.874  -4108130.414    680519.184
10 0 59635  73662.000000  0    5260087.004  -4158964.377   1572621.616
10 0 59635  73782.000000  0    4940166.858  -4132292.254   2437033.367
10 0 59635  73902.000000  0    4535025.731  -4027022.154   3258531.647
10 0 59635  74022.000000  0    4053125.595  -3843582.464   4022655.629
10 0 59635  74142.000000  0    3504258.373  -3583936.905   4715966.167
10 0 59635  74262.000000  0    2899340.585  -3251567.198   5326284.371
10 0 59635  74382.000000  0    2250191.043  -2851424.717   5842903.953
10 0 59635  74502.000000  0    1569294.691  -2389852.998   6256775.696
10 0 59635  74622.000000  0     869558.493  -1874483.392   6560659.791
10 0 59635  74742.000000  0     164064.677  -1314105.820   6749246.401
10 0 59635  74862.000000  0    -534174.232   -718516.672   6819242.816
10 0 59635  74982.000000  0   -1212454.450    -98346.517   6769426.700
10 0 59635  75102.000000  0   -1858611.020    535129.244   6600666.085
10 0 59635  75222.000000  0   -2461235.249   1170194.722   6315905.287
10 0 59635  75342.000000  0   -3009876.492   1794909.181   5920116.907
10 0 59635  75462.000000  0   -3495225.131   2397331.016   5420220.924
10 0 59635  75582.000000  0   -3909274.708   2965747.277   4824970.416
10 0 59635  75702.000000  0   -4245458.972   3488903.668   4144803.633
10 0 59635  75822.000000  0   -4498761.883   3956230.568   3391665.468
10 0 59635  75942.000000  0   -4665797.448   4358060.480   2578799.443
10 0 59635  76062.000000  0   -4744856.326   4685832.578   1720513.875
10 0 59635  76182.000000  0   -4735918.427   4932277.978    831925.484
10 0 59635  76302.000000  0   -4640631.712   5091579.822    -71313.271
10 0 59635  76422.000000  0   -4462258.094   5159506.734   -973297.755
10 0 59635  76542.000000  0   -4205584.880   5133514.642  -1858162.513
10 0 59635  76662.000000  0   -3876803.799   5012812.208  -2710368.254
10 0 59635  76782.000000  0   -3483365.227   4798391.796  -3514981.531
10 0 59635  76902.000000  0   -3033807.707   4493022.448  -4257939.122
10 0 59635  77022.000000  0   -2537570.131   4101208.227  -4926291.376
10 0 59635  77142.000000  0   -2004791.658   3629114.664  -5508421.209
10 0 59635  77262.000000  0   -1446103.917   3084465.107  -5994238.240
10 0 59635  77382.000000  0    -872418.605   2476407.272  -6375344.191
10 0 59635  77502.000000  0    -294715.710   1815354.584  -6645166.217
10 0 59635  77622.000000  0     276162.925   1112806.608  -6799059.061
10 0 59635  77742.000000  0     829711.815    381150.832  -6834376.961
10 0 59635  77862.000000  0    1355951.265   -366551.795  -6750514.935
10 0 59635  77982.000000  0    1845602.912  -1116795.349  -6548916.474
10 0 59635  78102.000000  0    2290249.169  -1855866.298  -6233051.094
10 0 59635  78222.000000  0    2682476.200  -2570087.810  -5808361.277
10 0 59635  78342.000000  0    3015997.851  -3246068.951  -5282180.152
10 0 59635  78462.000000  0    3285759.571  -3870956.757  -4663615.587
10 0 59635  78582.000000  0    3488017.079  -4432681.609  -3963401.397
10 0 59635  78702.000000  0    3620390.381  -4920193.167  -3193721.839
10 0 59635  78822.000000  0    3681893.313  -5323684.744  -2368008.333
10 0 59635  78942.000000  0    3672934.562  -5634799.168  -1500708.132
10 0 59635  79062.000000  0    3595290.613  -5846808.672   -607031.277
10 0 59635  79182.000000  0    3452050.459  -5954766.038    297320.670
10 0 59635  79302.000000  0    3247532.094  -5955620.806   1196437.129
10 0 59635  79422.000000  0    2987175.032  -5848299.061   2074487.132
10 0 59635  79542.000000  0    2677408.836  -5633741.262   2916008.202
10 0 59635  79662.000000  0    2325501.857  -5314899.428   3706185.613
10 0 59635  79782.000000  0    1939395.632  -4896694.946   4431118.097
10 0 59635  79902.000000  0    1527528.249  -4385937.003   5078065.635
10 0 59635  80022.000000  0    1098651.977  -3791204.223   5635673.671
10 0 59635  80142.000000  0     661647.228  -3122691.517   6094170.839
10 0 59635  80262.000000  0     225338.744  -2392026.964   6445533.743
10 0 59635  80382.000000  0    -201681.325  -1612064.370   6683620.243
10 0 59635  80502.000000  0    -611220.925   -796654.947   6804271.077
10 0 59635  80622.000000  0    -995643.998     39600.199   6805379.176
10 0 59635  80742.000000  0   -1348012.069    881611.928   6686924.012
10 0 59635  80862.000000  0   -1662209.026   1714074.678   6450971.604
10 0 59635  80982.000000  0   -1933047.507   2521743.766   6101640.900
10 0 59635  81102.000000  0   -2156355.281   3289714.809   5645036.230
10 0 59635  81222.000000  0   -2329039.902   4003700.363   5089146.577
10 0 59635  81342.000000  0   -2449131.768   4650300.278   4443712.922
10 0 59635  81462.000000  0   -2515803.660   5217260.192   3720062.635
10 0 59635  81582.000000  0   -2529366.280   5693712.207   2930913.271
10 0 59635  81702.000000  0   -2491239.326   6070391.333   2090148.752
10 0 59635  81822.000000  0   -2403899.231   6339823.534   1212572.647
10 0 59635  81942.000000  0   -2270803.967   6496480.389    313642.235
10 0 59635  82062.000000  0   -2096297.114   6536896.171   -590811.090
10 0 59635  82182.000000  0   -1885493.859   6459744.703  -1484869.913
10 0 59635  82302.000000  0   -1644150.388   6265871.254  -2352822.952
10 0 59635  82422.000000  0   -1378520.453   5958276.447  -3179448.192
10 0 59635  82542.000000  0   -1095204.992   5542060.392  -3950281.563
10 0 59635  82662.000000  0    -800998.227   5024327.091  -4651870.200
10 0 59635  82782.000000  0    -502733.391   4414051.036  -5272003.060
10 0 59635  82902.000000  0    -207131.490   3721911.528  -5799916.867
10 0 59635  83022.000000  0      79343.820   2960096.411  -6226474.403
10 0 59635  83142.000000  0     350621.380   2142080.310  -6544311.188
10 0 59635  83262.000000  0     601145.204   1282384.548  -6747950.901
10 0 59635  83382.000000  0     825983.612    396320.849  -6833890.829
10 0 59635  83502.000000  0    1020922.575   -500277.283  -6800655.370
10 0 59635  83622.000000  0    1182541.948  -1391331.969  -6648817.599
10 0 59635  83742.000000  0    1308273.771  -2260801.213  -6380989.092
10 0 59635  83862.000000  0    1396442.810  -3092959.959  -6001781.036
10 0 59635  83982.000000  0    1446288.193  -3872681.185  -5517735.045
10 0 59635  84102.000000  0    1457964.803  -4585711.517  -4937220.071
10 0 59635  84222.000000  0    1432526.138  -5218933.365  -4270298.195
10 0 59635  84342.000000  0    1371887.396  -5760612.935  -3528561.806
10 0 59635  84462.000000  0    1278768.718  -6200627.539  -2724940.150
10 0 59635  84582.000000  0    1156621.094  -6530666.075  -1873479.260
10 0 59635  84702.000000  0    1009535.735  -6744398.422   -989097.871
10 0 59635  84822.000000  0     842137.760  -6837607.997    -87323.317
10 0 59635  84942.000000  0     659467.849  -6808283.124    815986.605
10 0 59635  85062.000000  0     466854.649  -6656665.555   1704929.912
10 0 59635  85182.000000  0     269781.005  -6385254.016   2563849.929
10 0 59635  85302.000000  0      73747.441  -5998760.582   3377621.169
10 0 59635  85422.000000  0    -115864.153  -5504020.974   4131922.257
10 0 59635  85542.000000  0    -293922.471  -4909865.366   4813490.889
99
